{
  "norad_id": 66085,
  "name": "STARLINK-35370",
  "history": [
    {
      "epoch": "2026-03-28T11:23:22.956000Z",
      "apogee_km": 476.0577266159471,
      "perigee_km": 474.35206688468315,
      "latitude_deg": 6.268284012890894e-05,
      "longitude_deg": 161.54330217434762,
      "height_km": 476.133175192627,
      "semi_major_axis_km": 6853.341896750315,
      "eccentricity": 0.00012444,
      "inclination_deg": 53.1588,
      "raan_deg": 158.2834,
      "arg_perigee_deg": 92.0364,
      "mean_anomaly_deg": 268.078,
      "mean_motion_rev_day": 15.30203407
    }
  ]
}